{
  "type": "FeatureCollection",
  "features": [
    {
      "type": "Feature",
      "properties": {
        "norad_id": 37781,
        "name": "HAIYANG-2A",
        "group": "resource",
        "lat": 54.284919664014794,
        "lon": -15.503715676797821,
        "alt_km": 961.6602439256894,
        "timestamp": "2025-12-22T22:44:20.607575+00:00",
        "meta_object_name": "HAIYANG-2A",
        "meta_object_id": "2011-043A",
        "meta_epoch": "2025-12-22T13:45:50.051808",
        "meta_mean_motion": 13.78835446,
        "meta_eccentricity": 0.00016124,
        "meta_inclination": 99.3371,
        "meta_ra_of_asc_node": 357.3563,
        "meta_arg_of_pericenter": 70.096,
        "meta_mean_anomaly": 290.0365,
        "meta_ephemeris_type": 0,
        "meta_classification_type": "U",
        "meta_norad_cat_id": 37781,
        "meta_element_set_no": 999,
        "meta_rev_at_epoch": 72234,
        "meta_bstar": -0.00012168487,
        "meta_mean_motion_dot": -1.68e-06,
        "meta_mean_motion_ddot": 0,
        "tle_line1": "1 37781U 11043A   25356.57349597 -.00000168  00000+0 -12168-3 0  9992",
        "tle_line2": "2 37781  99.3371 357.3563 0001612  70.0960 290.0365 13.78835446722346"
      },
      "geometry": {
        "type": "Point",
        "coordinates": [
          -15.503715676797821,
          54.284919664014794
        ]
      }
    },
    {
      "type": "Feature",
      "properties": {
        "norad_id": 37791,
        "name": "RASAT",
        "group": "resource",
        "lat": -20.19021442960174,
        "lon": -96.93487635822557,
        "alt_km": 687.5946471833695,
        "timestamp": "2025-12-22T22:44:20.607587+00:00",
        "meta_object_name": "RASAT",
        "meta_object_id": "2011-044D",
        "meta_epoch": "2025-12-22T20:43:04.632384",
        "meta_mean_motion": 14.67923177,
        "meta_eccentricity": 0.0021456,
        "meta_inclination": 98.0649,
        "meta_ra_of_asc_node": 85.971,
        "meta_arg_of_pericenter": 34.4191,
        "meta_mean_anomaly": 81.0491,
        "meta_ephemeris_type": 0,
        "meta_classification_type": "U",
        "meta_norad_cat_id": 37791,
        "meta_element_set_no": 999,
        "meta_rev_at_epoch": 76731,
        "meta_bstar": 0.00014379,
        "meta_mean_motion_dot": 7.76e-06,
        "meta_mean_motion_ddot": 0,
        "tle_line1": "1 37791U 11044D   25356.86324806  .00000776  00000+0  14379-3 0  9991",
        "tle_line2": "2 37791  98.0649  85.9710 0021456  34.4191  81.0491 14.67923177767319"
      },
      "geometry": {
        "type": "Point",
        "coordinates": [
          -96.93487635822557,
          -20.19021442960174
        ]
      }
    },
    {
      "type": "Feature",
      "properties": {
        "norad_id": 37841,
        "name": "SRMSAT",
        "group": "resource",
        "lat": -11.802325074863003,
        "lon": -98.70427371545716,
        "alt_km": 860.8705161026801,
        "timestamp": "2025-12-22T22:44:20.607598+00:00",
        "meta_object_name": "SRMSAT",
        "meta_object_id": "2011-058D",
        "meta_epoch": "2025-12-22T10:24:14.876064",
        "meta_mean_motion": 14.11514562,
        "meta_eccentricity": 0.00119765,
        "meta_inclination": 19.9728,
        "meta_ra_of_asc_node": 49.2828,
        "meta_arg_of_pericenter": 59.704,
        "meta_mean_anomaly": 59.7163,
        "meta_ephemeris_type": 0,
        "meta_classification_type": "U",
        "meta_norad_cat_id": 37841,
        "meta_element_set_no": 999,
        "meta_rev_at_epoch": 73281,
        "meta_bstar": 7.8870936e-05,
        "meta_mean_motion_dot": 4.1e-06,
        "meta_mean_motion_ddot": 0,
        "tle_line1": "1 37841U 11058D   25356.43350551  .00000410  00000+0  78871-4 0  9994",
        "tle_line2": "2 37841  19.9728  49.2828 0011976  59.7040  59.7163 14.11514562732815"
      },
      "geometry": {
        "type": "Point",
        "coordinates": [
          -98.70427371545716,
          -11.802325074863003
        ]
      }
    },
    {
      "type": "Feature",
      "properties": {
        "norad_id": 38012,
        "name": "PLEIADES 1A",
        "group": "resource",
        "lat": 12.073678637881649,
        "lon": 67.79531033746517,
        "alt_km": 698.6808779403682,
        "timestamp": "2025-12-22T22:44:20.607609+00:00",
        "meta_object_name": "PLEIADES 1A",
        "meta_object_id": "2011-076F",
        "meta_epoch": "2025-12-22T14:57:07.313184",
        "meta_mean_motion": 14.58570554,
        "meta_eccentricity": 0.00011316,
        "meta_inclination": 98.1816,
        "meta_ra_of_asc_node": 69.2394,
        "meta_arg_of_pericenter": 73.8467,
        "meta_mean_anomaly": 35.7997,
        "meta_ephemeris_type": 0,
        "meta_classification_type": "U",
        "meta_norad_cat_id": 38012,
        "meta_element_set_no": 999,
        "meta_rev_at_epoch": 74625,
        "meta_bstar": 0.00014002161,
        "meta_mean_motion_dot": 6.06e-06,
        "meta_mean_motion_ddot": 0,
        "tle_line1": "1 38012U 11076F   25356.62300131  .00000606  00000+0  14002-3 0  9997",
        "tle_line2": "2 38012  98.1816  69.2394 0001131  73.8467  35.7997 14.58570554746251"
      },
      "geometry": {
        "type": "Point",
        "coordinates": [
          67.79531033746517,
          12.073678637881649
        ]
      }
    },
    {
      "type": "Feature",
      "properties": {
        "norad_id": 38038,
        "name": "ZIYUAN 1-02C (ZY 1-02C)",
        "group": "resource",
        "lat": -64.99086812281003,
        "lon": -135.76816840773716,
        "alt_km": 776.0228124951709,
        "timestamp": "2025-12-22T22:44:20.607620+00:00",
        "meta_object_name": "ZIYUAN 1-02C (ZY 1-02C)",
        "meta_object_id": "2011-079A",
        "meta_epoch": "2025-12-22T15:40:07.315680",
        "meta_mean_motion": 14.3802273,
        "meta_eccentricity": 0.00074997,
        "meta_inclination": 98.4324,
        "meta_ra_of_asc_node": 62.4839,
        "meta_arg_of_pericenter": 112.2654,
        "meta_mean_anomaly": 49.7725,
        "meta_ephemeris_type": 0,
        "meta_classification_type": "U",
        "meta_norad_cat_id": 38038,
        "meta_element_set_no": 999,
        "meta_rev_at_epoch": 73383,
        "meta_bstar": 0.00019463077,
        "meta_mean_motion_dot": 5.46e-06,
        "meta_mean_motion_ddot": 0,
        "tle_line1": "1 38038U 11079A   25356.65286245  .00000546  00000+0  19463-3 0  9999",
        "tle_line2": "2 38038  98.4324  62.4839 0007499 112.2654  49.7725 14.38022730733834"
      },
      "geometry": {
        "type": "Point",
        "coordinates": [
          -135.76816840773716,
          -64.99086812281003
        ]
      }
    },
    {
      "type": "Feature",
      "properties": {
        "norad_id": 38338,
        "name": "ARIRANG-3 (KOMPSAT-3)",
        "group": "resource",
        "lat": 25.24857688507151,
        "lon": -52.349443158220026,
        "alt_km": 686.4160295218326,
        "timestamp": "2025-12-22T22:44:20.607631+00:00",
        "meta_object_name": "ARIRANG-3 (KOMPSAT-3)",
        "meta_object_id": "2012-025B",
        "meta_epoch": "2025-12-22T14:24:29.846016",
        "meta_mean_motion": 14.61724806,
        "meta_eccentricity": 0.00047924,
        "meta_inclination": 98.3337,
        "meta_ra_of_asc_node": 311.2647,
        "meta_arg_of_pericenter": 303.8058,
        "meta_mean_anomaly": 56.2686,
        "meta_ephemeris_type": 0,
        "meta_classification_type": "U",
        "meta_norad_cat_id": 38338,
        "meta_element_set_no": 999,
        "meta_rev_at_epoch": 72554,
        "meta_bstar": 0.00011024611,
        "meta_mean_motion_dot": 5.01e-06,
        "meta_mean_motion_ddot": 0,
        "tle_line1": "1 38338U 12025B   25356.60034544  .00000501  00000+0  11025-3 0  9999",
        "tle_line2": "2 38338  98.3337 311.2647 0004792 303.8058  56.2686 14.61724806725548"
      },
      "geometry": {
        "type": "Point",
        "coordinates": [
          -52.349443158220026,
          25.24857688507151
        ]
      }
    },
    {
      "type": "Feature",
      "properties": {
        "norad_id": 38709,
        "name": "EXACTVIEW-1 (ADS-1B)",
        "group": "resource",
        "lat": 65.2153466797519,
        "lon": -54.460136042596154,
        "alt_km": 808.696299230819,
        "timestamp": "2025-12-22T22:44:20.607641+00:00",
        "meta_object_name": "EXACTVIEW-1 (ADS-1B)",
        "meta_object_id": "2012-039C",
        "meta_epoch": "2025-12-22T05:21:26.060256",
        "meta_mean_motion": 14.24911668,
        "meta_eccentricity": 0.0010213,
        "meta_inclination": 98.9637,
        "meta_ra_of_asc_node": 104.8123,
        "meta_arg_of_pericenter": 325.9795,
        "meta_mean_anomaly": 34.0728,
        "meta_ephemeris_type": 0,
        "meta_classification_type": "U",
        "meta_norad_cat_id": 38709,
        "meta_element_set_no": 999,
        "meta_rev_at_epoch": 69750,
        "meta_bstar": 8.2268124e-05,
        "meta_mean_motion_dot": 1.46e-06,
        "meta_mean_motion_ddot": 0,
        "tle_line1": "1 38709U 12039C   25356.22321829  .00000146  00000+0  82268-4 0  9992",
        "tle_line2": "2 38709  98.9637 104.8123 0010213 325.9795  34.0728 14.24911668697500"
      },
      "geometry": {
        "type": "Point",
        "coordinates": [
          -54.460136042596154,
          65.2153466797519
        ]
      }
    }
  ]
}